NORAD_CAT_ID,OBJECT_NAME,OBJECT_TYPE,EPOCH,MEAN_MOTION,ECCENTRICITY,INCLINATION,RA_OF_ASC_NODE,ARG_OF_PERICENTER,MEAN_ANOMALY,BSTAR,MEAN_MOTION_DOT,MEAN_MOTION_DDOT,TLE_LINE0,TLE_LINE1,TLE_LINE2,SEMIMAJOR_AXIS,PERIOD,APOGEE,PERIGEE,DECAYED
52275.0,STARLINK-3784,PAYLOAD,2023-08-05 18:44:08,15.08853173,0.0001018,53.2178,39.9608,80.1856,279.9251,0.00019547,2.826e-05,0.0,0 STARLINK-3784,1 52275U 22041Q   23217.78065240  .00002826  00000-0  19547-3 0  9994,2 52275  53.2178  39.9608 0001018  80.1856 279.9251 15.08853173 72625,6917.84,95.437,540.409,539.001,0.0
52275.0,STARLINK-3784,PAYLOAD,2023-08-06 18:34:57,15.08827053,9.08e-05,53.2179,35.4985,88.7214,271.3882,-0.00014179,-2.543e-05,0.0,0 STARLINK-3784,1 52275U 22041Q   23218.77427372 -.00002543  00000-0 -14179-3 0  9996,2 52275  53.2179  35.4985 0000908  88.7214 271.3882 15.08827053 72774,6917.92,95.438,540.413,539.157,0.0
52275.0,STARLINK-3784,PAYLOAD,2023-08-07 18:25:44,15.08840558,8.46e-05,53.218,31.0387,107.7986,252.3099,2.838e-05,1.64e-06,0.0,0 STARLINK-3784,1 52275U 22041Q   23219.76787285  .00000164  00000-0  28380-4 0  9993,2 52275  53.2180  31.0387 0000846 107.7986 252.3099 15.08840558 72924,6917.879,95.438,540.329,539.158,0.0
52275.0,STARLINK-3784,PAYLOAD,2023-08-08 18:16:30,15.08862208,8.32e-05,53.218,26.5784,99.7882,260.3204,0.00072791,0.00011323,0.0,0 STARLINK-3784,1 52275U 22041Q   23220.76146989  .00011323  00000-0  72791-3 0  9998,2 52275  53.2180  26.5784 0000832  99.7882 260.3204 15.08862208 73074,6917.813,95.436,540.253,539.102,0.0
52275.0,STARLINK-3784,PAYLOAD,2023-08-09 10:10:22,15.0885314,0.000132,53.2178,23.6052,101.7507,258.3633,0.00031733,4.768e-05,0.0,0 STARLINK-3784,1 52275U 22041Q   23221.42386757  .00004768  00000-0  31733-3 0  9997,2 52275  53.2178  23.6052 0001320 101.7507 258.3633 15.08853140 73177,6917.84,95.437,540.618,538.792,0.0
52275.0,STARLINK-3784,PAYLOAD,2023-08-09 14:56:31,15.08845323,8.2e-05,53.2186,22.7141,108.0539,252.0542,2.0381e-05,3.7e-07,0.0,0 STARLINK-3784,1 52275U 22041Q   23221.62258748  .00000037  00000-0  20381-4 0  9990,2 52275  53.2186  22.7141 0000820 108.0539 252.0542 15.08845323 73202,6917.864,95.437,540.296,539.162,0.0
52275.0,STARLINK-3784,PAYLOAD,2023-08-10 16:22:41,15.08848049,0.0001004,53.2188,17.9563,107.781,252.3291,0.00018144,2.602e-05,0.0,0 STARLINK-3784,1 52275U 22041Q   23222.68242571  .00002602  00000-0  18144-3 0  9997,2 52275  53.2188  17.9563 0001004 107.7810 252.3291 15.08848049 73360,6917.856,95.437,540.415,539.026,0.0
52275.0,STARLINK-3784,PAYLOAD,2023-08-11 09:51:56,15.08835894,6.89e-05,53.2179,14.6873,73.1618,286.9449,0.00027534,4.097e-05,0.0,0 STARLINK-3784,1 52275U 22041Q   23223.41107207  .00004097  00000-0  27534-3 0  9998,2 52275  53.2179  14.6873 0000689  73.1618 286.9449 15.08835894 73472,6917.893,95.438,540.235,539.281,0.0
52275.0,STARLINK-3784,PAYLOAD,2023-08-11 19:24:14,15.08847778,7.87e-05,53.2183,12.9007,74.2639,285.844,0.00019348,2.794e-05,0.0,0 STARLINK-3784,1 52275U 22041Q   23223.80850671  .00002794  00000-0  19348-3 0  9997,2 52275  53.2183  12.9007 0000787  74.2639 285.8440 15.08847778 73531,6917.857,95.437,540.266,539.177,0.0
52275.0,STARLINK-3784,PAYLOAD,2023-08-12 09:42:43,15.0884004,7.21e-05,53.2179,10.225,74.5319,285.5752,7.3295e-05,8.79e-06,0.0,0 STARLINK-3784,1 52275U 22041Q   23224.40467049  .00000879  00000-0  73295-4 0  9991,2 52275  53.2179  10.2250 0000721  74.5319 285.5752 15.08840040 73621,6917.88,95.438,540.244,539.246,0.0
52275.0,STARLINK-3784,PAYLOAD,2023-08-13 17:30:26,15.0884244,9.49e-05,53.218,4.2756,80.1468,279.9631,6.9467e-05,8.18e-06,0.0,0 STARLINK-3784,1 52275U 22041Q   23225.72947102  .00000818  00000-0  69467-4 0  9999,2 52275  53.2180   4.2756 0000949  80.1468 279.9631 15.08842440 73828,6917.873,95.437,540.394,539.081,0.0
52275.0,STARLINK-3784,PAYLOAD,2023-08-14 20:31:59,15.08845588,9.9e-05,53.2181,359.2205,92.1812,267.9294,0.00011661,1.569e-05,0.0,0 STARLINK-3784,1 52275U 22041Q   23226.85554979  .00001569  00000-0  11661-3 0  9996,2 52275  53.2181 359.2205 0000990  92.1812 267.9294 15.08845588 73999,6917.863,95.437,540.413,539.043,0.0
52275.0,STARLINK-3784,PAYLOAD,2023-08-15 09:15:05,15.08837506,0.0001087,53.2181,356.8409,86.9422,273.1694,7.4798e-05,9.03e-06,0.0,0 STARLINK-3784,1 52275U 22041Q   23227.38547465  .00000903  00000-0  74798-4 0  9999,2 52275  53.2181 356.8409 0001087  86.9422 273.1694 15.08837506 74078,6917.888,95.438,540.505,539.001,0.0
52275.0,STARLINK-3784,PAYLOAD,2023-08-16 01:08:55,15.08846021,0.0001168,53.2179,353.8687,82.8689,277.2436,0.00011051,1.472e-05,0.0,0 STARLINK-3784,1 52275U 22041Q   23228.04786944  .00001472  00000-0  11051-3 0  9994,2 52275  53.2179 353.8687 0001168  82.8689 277.2436 15.08846021 74172,6917.862,95.437,540.535,538.919,0.0
52275.0,STARLINK-3784,PAYLOAD,2023-08-16 17:02:47,15.0884079,0.0001101,53.2185,350.8962,87.1362,272.9756,4.4248e-05,4.16e-06,0.0,0 STARLINK-3784,1 52275U 22041Q   23228.71027585  .00000416  00000-0  44248-4 0  9999,2 52275  53.2185 350.8962 0001101  87.1362 272.9756 15.08840790 74270,6917.878,95.438,540.505,538.981,0.0
52275.0,STARLINK-3784,PAYLOAD,2023-08-18 00:50:29,15.08841179,0.0001415,53.221,344.9494,252.687,107.3967,2.7445e-05,1.49e-06,0.0,0 STARLINK-3784,1 52275U 22041Q   23230.03506259  .00000149  00000-0  27445-4 0  9990,2 52275  53.2210 344.9494 0001415 252.6870 107.3967 15.08841179 74473,6917.877,95.437,540.721,538.763,0.0
52275.0,STARLINK-3784,PAYLOAD,2023-08-18 07:12:03,15.08834301,0.000127,53.219,343.7606,94.3278,265.7859,5.7907e-05,6.34e-06,0.0,0 STARLINK-3784,1 52275U 22041Q   23230.30003762  .00000634  00000-0  57907-4 0  9996,2 52275  53.2190 343.7606 0001270  94.3278 265.7859 15.08834301 74517,6917.898,95.438,540.641,538.884,0.0
52275.0,STARLINK-3784,PAYLOAD,2023-08-19 11:48:59,15.0884302,0.0001112,53.2177,338.4069,88.823,271.2889,0.00010279,1.349e-05,0.0,0 STARLINK-3784,1 52275U 22041Q   23231.49235480  .00001349  00000-0  10279-3 0  9995,2 52275  53.2177 338.4069 0001112  88.8230 271.2889 15.08843020 74699,6917.871,95.437,540.505,538.967,0.0
52275.0,STARLINK-3784,PAYLOAD,2023-08-19 16:35:08,15.08850902,0.0001051,53.2171,337.5137,107.251,252.8597,7.0376e-05,8.33e-06,0.0,0 STARLINK-3784,1 52275U 22041Q   23231.69106925  .00000833  00000-0  70376-4 0  9990,2 52275  53.2171 337.5137 0001051 107.2510 252.8597 15.08850902 74720,6917.847,95.437,540.439,538.985,0.0
52275.0,STARLINK-3784,PAYLOAD,2023-08-20 11:39:46,15.08837872,0.0001411,53.2163,333.9457,100.7957,259.3194,8.249e-05,1.025e-05,0.0,0 STARLINK-3784,1 52275U 22041Q   23232.48595916  .00001025  00000-0  82490-4 0  9994,2 52275  53.2163 333.9457 0001411 100.7957 259.3194 15.08837872 74848,6917.887,95.438,540.728,538.776,0.0
52275.0,STARLINK-3784,PAYLOAD,2023-08-21 13:05:56,15.08845788,0.0001033,53.2186,329.1907,82.3787,277.7323,-2.2168e-05,-6.41e-06,0.0,0 STARLINK-3784,1 52275U 22041Q   23233.54579852 -.00000641  00000-0 -22168-4 0  9994,2 52275  53.2186 329.1907 0001033  82.3787 277.7323 15.08845788 75008,6917.863,95.437,540.442,539.013,0.0
52275.0,STARLINK-3784,PAYLOAD,2023-08-23 11:12:08,15.08837994,0.000114,53.2187,320.5679,81.2806,278.8315,7.3251e-05,8.78e-06,0.0,0 STARLINK-3784,1 52275U 22041Q   23235.46676307  .00000878  00000-0  73251-4 0  9999,2 52275  53.2187 320.5679 0001140  81.2806 278.8315 15.08837994 75293,6917.887,95.438,540.54,538.963,0.0
52275.0,STARLINK-3784,PAYLOAD,2023-08-24 11:02:55,15.08835998,0.0001321,53.2197,316.1074,109.6819,250.4316,1.6867e-05,-1.9e-07,0.0,0 STARLINK-3784,1 52275U 22041Q   23236.46036643 -.00000019  00000-0  16867-4 0  9991,2 52275  53.2197 316.1074 0001321 109.6819 250.4316 15.08835998 74236,6917.893,95.438,540.671,538.844,0.0
52275.0,STARLINK-3784,PAYLOAD,2023-08-25 12:29:05,15.08844165,0.0001114,53.2179,311.3485,102.9462,257.1655,9.5931e-05,1.239e-05,0.0,0 STARLINK-3784,1 52275U 22041Q   23237.52020062  .00001239  00000-0  95931-4 0  9990,2 52275  53.2179 311.3485 0001114 102.9462 257.1655 15.08844165 74392,6917.868,95.437,540.503,538.962,0.0
52275.0,STARLINK-3784,PAYLOAD,2023-08-26 10:44:30,15.08835461,0.0001076,53.2174,307.1846,99.4815,260.6299,3.3513e-05,2.46e-06,0.0,0 STARLINK-3784,1 52275U 22041Q   23238.44756961  .00000246  00000-0  33513-4 0  9991,2 52275  53.2174 307.1846 0001076  99.4815 260.6299 15.08835461 75742,6917.894,95.438,540.504,539.015,0.0
52275.0,STARLINK-3784,PAYLOAD,2023-08-26 12:19:52,15.08838151,0.0001046,53.2172,306.8871,96.1789,263.9322,5.2345e-05,5.45e-06,0.0,0 STARLINK-3784,1 52275U 22041Q   23238.51380752  .00000545  00000-0  52345-4 0  9996,2 52275  53.2172 306.8871 0001046  96.1789 263.9322 15.08838151 74544,6917.886,95.438,540.475,539.027,0.0
52275.0,STARLINK-3784,PAYLOAD,2023-08-27 04:13:44,15.0884551,0.0001117,53.2174,303.913,81.821,278.2909,3.8989e-05,3.33e-06,0.0,0 STARLINK-3784,1 52275U 22041Q   23239.17620424  .00000333  00000-0  38989-4 0  9995,2 52275  53.2174 303.9130 0001117  81.8210 278.2909 15.08845510 75853,6917.864,95.437,540.501,538.956,0.0
52275.0,STARLINK-3784,PAYLOAD,2023-08-27 08:59:53,15.08848894,0.0001117,53.2174,303.0213,83.495,276.6169,6.9119e-05,8.13e-06,0.0,0 STARLINK-3784,1 52275U 22041Q   23239.37492027  .00000813  00000-0  69119-4 0  9995,2 52275  53.2174 303.0213 0001117  83.4950 276.6169 15.08848894 74672,6917.853,95.437,540.491,538.945,0.0
52275.0,STARLINK-3784,PAYLOAD,2023-08-27 10:35:16,15.08850243,0.0001142,53.2174,302.7239,82.3522,277.76,7.9152e-05,9.72e-06,0.0,0 STARLINK-3784,1 52275U 22041Q   23239.44115881  .00000972  00000-0  79152-4 0  9997,2 52275  53.2174 302.7239 0001142  82.3522 277.7600 15.08850243 74681,6917.849,95.437,540.504,538.924,0.0
52275.0,STARLINK-3784,PAYLOAD,2023-08-28 10:26:03,15.08837597,0.0001389,53.2178,298.2645,78.0712,282.0436,4.1324e-05,3.7e-06,0.0,0 STARLINK-3784,1 52275U 22041Q   23240.43476775  .00000370  00000-0  41324-4 0  9992,2 52275  53.2178 298.2645 0001389  78.0712 282.0436 15.08837597 76046,6917.888,95.438,540.714,538.792,0.0
